BLUEBON                 
1 62688U 25009CH  26068.70316231  .00010452  00000+0  37313-3 0  9992
2 62688  97.4017 152.2033 0001193  43.3900 316.7434 15.29047253 63767
STARLINK-35692          
1 66513U 25263AE  26068.14409341  .00028183  00000+0  10285-2 0  9996
2 66513  43.0000 353.9242 0000937 256.6074 103.4673 15.27618533 18810
